HAWK-5A                 
1 52757U 22057AB  26197.96201105  .00010385  00000+0  17210-3 0  9991
2 52757  97.6630 358.7605 0003195 330.0631  30.0438 15.52363268230966
HAWK-6B                 
1 55324U 23011A   26198.28002701  .00002529  00000+0  11292-3 0  9997
2 55324  40.4975 176.5147 0004408 251.1404 108.8927 15.23165450192430
HAWK-6C                 
1 55326U 23011C   26198.21382862  .00002221  00000+0  10018-3 0  9995
2 55326  40.4965 173.7366 0004920 244.6978 115.3322 15.23165002192430
HAWK-6A                 
1 55327U 23011D   26198.27943241  .00002344  00000+0  10527-3 0  9997
2 55327  40.4975 174.9807 0004528 242.0934 117.9417 15.23165302192440
HAWK-7A                 
1 56191U 23054P   26198.11313913  .00002943  00000+0  11158-3 0  9990
2 56191  97.2658  84.6895 0001232 321.9127  38.2026 15.27644350181596
HAWK-7B                 
1 56193U 23054R   26198.24407738  .00002938  00000+0  11141-3 0  9991
2 56193  97.2684  83.0916 0001100  11.8899 348.2367 15.27643443181616
HAWK-7C                 
1 56200U 23054Y   26198.11294580  .00002919  00000+0  11070-3 0  9995
2 56200  97.2659  83.7235 0000733 345.5508  14.5710 15.27645306181595
